JILIN-1 07              
1 43159U 18008E   26198.60198303  .00004518  00000+0  13449-3 0  9996
2 43159  97.1765 217.7281 0006518 317.6119  42.4621 15.35187208469665
JILIN-1 08              
1 43160U 18008F   26198.62383614  .00003021  00000+0  94069-4 0  9997
2 43160  97.1802 217.0310 0005019 342.9174  17.1900 15.34025582469611
S-NET D                 
1 43186U 18014G   26198.60997463  .00002521  00000+0  13124-3 0  9999
2 43186  97.5327 103.2117 0006215 274.2830  85.7692 15.16929875463375
S-NET B                 
1 43187U 18014H   26198.62202689  .00002508  00000+0  13071-3 0  9997
2 43187  97.5333 103.2112 0006833 268.3508  91.6942 15.16899456463375
S-NET A                 
1 43188U 18014J   26198.60868445  .00002499  00000+0  13012-3 0  9998
2 43188  97.5341 103.4127 0006726 269.2169  90.8294 15.16938167463371
S-NET C                 
1 43189U 18014K   26198.16430318  .00002392  00000+0  12482-3 0  9996
2 43189  97.5362 103.0501 0008082 261.9930  98.0386 15.16888253461852
PAZ                     
1 43215U 18020A   26198.60402995  .00000856  00000+0  43951-4 0  9991
2 43215  97.4457 205.5579 0001704  88.2361 271.9068 15.19147684465628
GOES 17                 
1 43226U 18022A   26198.39272483 -.00000193  00000+0  00000+0 0  9996
2 43226   1.0128  85.2242 0000596  72.6392 189.2281  1.00270880 30722
LKW-4                   
1 43236U 18025A   26198.54385662  .00026435  00000+0  27394-3 0  9996
2 43236  97.6356  11.8563 0003508 177.3628 182.7650 15.64668475464779
ZHUHAI-1 OVS-02         
1 43440U 18040B   26198.60740133  .00003507  00000+0  14149-3 0  9994
2 43440  97.0382 214.0390 0005262 129.5579 230.6125 15.25394776457350
ZHUHAI-1 OHS-02         
1 43441U 18040C   26198.64065204  .00003908  00000+0  15304-3 0  9997
2 43441  97.0359 221.0402 0011335 117.9807 242.2581 15.26287874118923
GAOFEN-6                
1 43484U 18048A   26198.63632922  .00000442  00000+0  71077-4 0  9998
2 43484  98.0954 261.3439 0012096  74.5982 285.6563 14.76386108437880
LUOJIA-1 01             
1 43485U 18048B   26198.65001491  .00001680  00000+0  19175-3 0  9997
2 43485  97.8099 276.3490 0009621  30.6710 329.5066 14.87388943438746
PAKTES 1A               
1 43529U 18056A   26198.57394119  .00001169  00000+0  10098-3 0  9995
2 43529  98.1294 356.3570 0019707  12.8576 347.3145 14.99210646436473
PRSS-1                  
1 43530U 18056B   26198.64010721  .00000563  00000+0  77317-4 0  9994
2 43530  97.7806 265.6651 0001285  85.6712 274.4649 14.82032178432944
HAIYANG-1C              
1 43609U 18068A   26198.59327657  .00000398  00000+0  15758-3 0  9993
2 43609  98.5181 270.4601 0011072  11.4746 348.6690 14.34188309411441
SSTL S1-4               
1 43618U 18071A   26198.58473984  .00000602  00000+0  58211-4 0  9991
2 43618  97.4980  68.9272 0002456  95.4702 264.6801 14.96206303427485
HAIYANG-2B              
1 43655U 18081A   26198.62926557  .00000099  00000+0  13985-3 0  9995
2 43655  99.3285 206.9266 0000976 143.8499 216.2719 13.79307290389124
CFOSAT                  
1 43662U 18083A   26196.92928442  .00001708  00000+0  90896-4 0  9996
2 43662  97.3616 200.6163 0001830  75.6723 284.4713 15.16538301426795
TEN-KOH                 
1 43677U 18084G   26198.48187733  .00001478  00000+0  11457-3 0  9995
2 43677  98.0765  32.1201 0009768  23.8261 336.3413 15.03053918420717
DIWATA-2B               
1 43678U 18084H   26198.57819419  .00001022  00000+0  86118-4 0  9991
2 43678  98.1211  36.1171 0012683  77.0926 283.1713 15.00568470420773
STARS-AO                
1 43679U 18084J   26198.08157632  .00003267  00000+0  16749-3 0  9995
2 43679  98.0474  53.8983 0003562  77.9645 282.1986 15.17356770422009
AUTCUBE 2               
1 43681U 18084K   26198.04654678  .00001954  00000+0  12370-3 0  9993
2 43681  98.0688  45.8049 0007629 307.5976  52.4559 15.10273255421439
METOP-C                 
1 43689U 18087A   26196.57486992  .00000053  00000+0  44045-4 0  9996
2 43689  98.6630 255.6574 0002216  93.2289 266.9142 14.21519167398863
ES'HAIL 2               
1 43700U 18090A   26198.62941420  .00000135  00000+0  00000+0 0  9993
2 43700   0.0133  73.4101 0002306  84.9981  29.4009  1.00272343 27981
MOHAMMED VI-B           
1 43717U 18095A   26198.59306977  .00000498  00000+0  77719-4 0  9992
2 43717  97.9547 270.4973 0001771  92.1087 268.0326 14.77084216412677
HYSIS                   
1 43719U 18096A   26198.59547734  .00000401  00000+0  61821-4 0  9994
2 43719  97.9826 265.1029 0001787  82.9493 277.1921 14.78672372411912
COSMOS 2530 (RODNIK-S *)
1 43751U 18097A   26198.64371782 -.00000037  00000+0 -33715-3 0  9992
2 43751  82.5117 203.3784 0018867 333.5097  26.5017 12.42881916346076
COSMOS 2531 (RODNIK-S *)
1 43752U 18097B   26198.58474378 -.00000019  00000+0 -20578-3 0  9994
2 43752  82.5161 204.4839 0016471 353.8500   6.2375 12.42913325346085
