OBJECT_NAME,OBJECT_ID,EPOCH,MEAN_MOTION,ECCENTRICITY,INCLINATION,RA_OF_ASC_NODE,ARG_OF_PERICENTER,MEAN_ANOMALY,EPHEMERIS_TYPE,CLASSIFICATION_TYPE,NORAD_CAT_ID,ELEMENT_SET_NO,REV_AT_EPOCH,BSTAR,MEAN_MOTION_DOT,MEAN_MOTION_DDOT
JILIN-1 07,2018-008E,2026-07-17T14:26:51.333792,15.35187208,.00065185,97.1765,217.7281,317.6119,42.4621,0,U,43159,999,46966,.13449412E-3,.4518E-4,0
JILIN-1 08,2018-008F,2026-07-17T14:58:19.442496,15.34025582,.00050192,97.1802,217.0310,342.9174,17.1900,0,U,43160,999,46961,.94069083E-4,.3021E-4,0
S-NET D,2018-014G,2026-07-17T14:38:21.808032,15.16929875,.00062151,97.5327,103.2117,274.2830,85.7692,0,U,43186,999,46337,.13124068E-3,.2521E-4,0
S-NET B,2018-014H,2026-07-17T14:55:43.123296,15.16899456,.00068334,97.5333,103.2112,268.3508,91.6942,0,U,43187,999,46337,.13070704E-3,.2508E-4,0
S-NET A,2018-014J,2026-07-17T14:36:30.336480,15.16938167,.00067263,97.5341,103.4127,269.2169,90.8294,0,U,43188,999,46337,.13011898E-3,.2499E-4,0
S-NET C,2018-014K,2026-07-17T03:56:35.794752,15.16888253,.00080822,97.5362,103.0501,261.9930,98.0386,0,U,43189,999,46185,.12482451E-3,.2392E-4,0
PAZ,2018-020A,2026-07-17T14:29:48.187680,15.19147684,.00017044,97.4457,205.5579,88.2361,271.9068,0,U,43215,999,46562,.43950749E-4,.856E-5,0
GOES 17,2018-022A,2026-07-17T09:25:31.425312,1.00270880,.00005967,1.0128,85.2242,72.6392,189.2281,0,U,43226,999,3072,0,-.193E-5,0
LKW-4,2018-025A,2026-07-17T13:03:09.211968,15.64668475,.00035081,97.6356,11.8563,177.3628,182.7650,0,U,43236,999,46477,.27394428E-3,.26435E-3,0
ZHUHAI-1 OVS-02,2018-040B,2026-07-17T14:34:39.474912,15.25394776,.00052626,97.0382,214.0390,129.5579,230.6125,0,U,43440,999,45735,.141492E-3,.3507E-4,0
ZHUHAI-1 OHS-02,2018-040C,2026-07-17T15:22:32.336256,15.26287874,.00113351,97.0359,221.0402,117.9807,242.2581,0,U,43441,999,11892,.15303677E-3,.3908E-4,0
GAOFEN-6,2018-048A,2026-07-17T15:16:18.844608,14.76386108,.00120966,98.0954,261.3439,74.5982,285.6563,0,U,43484,999,43788,.71076915E-4,.442E-5,0
LUOJIA-1 01,2018-048B,2026-07-17T15:36:01.288224,14.87388943,.00096211,97.8099,276.3490,30.6710,329.5066,0,U,43485,999,43874,.19175471E-3,.168E-4,0
PAKTES 1A,2018-056A,2026-07-17T13:46:28.518816,14.99210646,.00197071,98.1294,356.3570,12.8576,347.3145,0,U,43529,999,43647,.1009826E-3,.1169E-4,0
PRSS-1,2018-056B,2026-07-17T15:21:45.262944,14.82032178,.00012851,97.7806,265.6651,85.6712,274.4649,0,U,43530,999,43294,.77316819E-4,.563E-5,0
HAIYANG-1C,2018-068A,2026-07-17T14:14:19.095648,14.34188309,.00110725,98.5181,270.4601,11.4746,348.6690,0,U,43609,999,41144,.1575765E-3,.398E-5,0
SSTL S1-4,2018-071A,2026-07-17T14:02:01.522176,14.96206303,.00024561,97.4980,68.9272,95.4702,264.6801,0,U,43618,999,42748,.58211471E-4,.602E-5,0
HAIYANG-2B,2018-081A,2026-07-17T15:06:08.545248,13.79307290,.00009762,99.3285,206.9266,143.8499,216.2719,0,U,43655,999,38912,.13985484E-3,.99E-6,0
CFOSAT,2018-083A,2026-07-15T22:18:10.173888,15.16538301,.000183,97.3616,200.6163,75.6723,284.4713,0,U,43662,999,42679,.90896E-4,.1708E-4,0
TEN-KOH,2018-084G,2026-07-17T11:33:54.201312,15.03053918,.0009768,98.0765,32.1201,23.8261,336.3413,0,U,43677,999,42071,.11457024E-3,.1478E-4,0
DIWATA-2B,2018-084H,2026-07-17T13:52:35.978016,15.00568470,.00126832,98.1211,36.1171,77.0926,283.1713,0,U,43678,999,42077,.86117817E-4,.1022E-4,0
STARS-AO,2018-084J,2026-07-17T01:57:28.194048,15.17356770,.00035623,98.0474,53.8983,77.9645,282.1986,0,U,43679,999,42200,.16748694E-3,.3267E-4,0
AUTCUBE 2,2018-084K,2026-07-17T01:07:01.641792,15.10273255,.00076293,98.0688,45.8049,307.5976,52.4559,0,U,43681,999,42143,.12370127E-3,.1954E-4,0
METOP-C,2018-087A,2026-07-15T13:47:48.761088,14.21519167,.0002216,98.6630,255.6574,93.2289,266.9142,0,U,43689,999,39886,.44045E-4,.53E-6,0
ES'HAIL 2,2018-090A,2026-07-17T15:06:21.386880,1.00272343,.00023065,0.0133,73.4101,84.9981,29.4009,0,U,43700,999,2798,0,.135E-5,0
MOHAMMED VI-B,2018-095A,2026-07-17T14:14:01.228128,14.77084216,.00017713,97.9547,270.4973,92.1087,268.0326,0,U,43717,999,41267,.77718982E-4,.498E-5,0
HYSIS,2018-096A,2026-07-17T14:17:29.242176,14.78672372,.00017873,97.9826,265.1029,82.9493,277.1921,0,U,43719,999,41191,.61820526E-4,.401E-5,0
COSMOS 2530 (RODNIK-S 16),2018-097A,2026-07-17T15:26:57.219648,12.42881916,.00188675,82.5117,203.3784,333.5097,26.5017,0,U,43751,999,34607,-.3371461E-3,-.37E-6,0
COSMOS 2531 (RODNIK-S 17),2018-097B,2026-07-17T14:02:01.862592,12.42913325,.00164713,82.5161,204.4839,353.8500,6.2375,0,U,43752,999,34608,-.20577528E-3,-.19E-6,0
